CCSDS_OMM_VERS = 2.0
CREATION_DATE  = 
ORIGINATOR     = 

OBJECT_NAME    = COSMOS 1933
OBJECT_ID      = 1988-020A
CENTER_NAME    = EARTH
REF_FRAME      = TEME
TIME_SYSTEM    = UTC
MEAN_ELEMENT_THEORY = SGP/SGP4

EPOCH          = 2026-02-13T03:13:45.980544
MEAN_MOTION    = 15.17766591
ECCENTRICITY   = .00028104
INCLINATION    = 82.5117
RA_OF_ASC_NODE = 275.2072
ARG_OF_PERICENTER = 300.7591
MEAN_ANOMALY   = 59.3366

EPHEMERIS_TYPE = 0
CLASSIFICATION_TYPE = U
NORAD_CAT_ID   = 18958
ELEMENT_SET_NO = 999
REV_AT_EPOCH   = 4650
BSTAR          = .17663632E-3
MEAN_MOTION_DOT = .3596E-4
MEAN_MOTION_DDOT = 0

CCSDS_OMM_VERS = 2.0
CREATION_DATE  = 
ORIGINATOR     = 

OBJECT_NAME    = SL-3 R/B
OBJECT_ID      = 1988-032B
CENTER_NAME    = EARTH
REF_FRAME      = TEME
TIME_SYSTEM    = UTC
MEAN_ELEMENT_THEORY = SGP/SGP4

EPOCH          = 2026-02-13T04:09:34.403904
MEAN_MOTION    = 15.19591410
ECCENTRICITY   = .00249367
INCLINATION    = 97.5149
RA_OF_ASC_NODE = 27.5245
ARG_OF_PERICENTER = 323.2090
MEAN_ANOMALY   = 36.7432

EPHEMERIS_TYPE = 0
CLASSIFICATION_TYPE = U
NORAD_CAT_ID   = 19046
ELEMENT_SET_NO = 999
REV_AT_EPOCH   = 4838
BSTAR          = .2995594E-3
MEAN_MOTION_DOT = .6358E-4
MEAN_MOTION_DDOT = 0

CCSDS_OMM_VERS = 2.0
CREATION_DATE  = 
ORIGINATOR     = 

OBJECT_NAME    = SL-16 R/B
OBJECT_ID      = 1988-039B
CENTER_NAME    = EARTH
REF_FRAME      = TEME
TIME_SYSTEM    = UTC
MEAN_ELEMENT_THEORY = SGP/SGP4

EPOCH          = 2026-02-13T05:56:57.801408
MEAN_MOTION    = 14.19612245
ECCENTRICITY   = .00212462
INCLINATION    = 71.0145
RA_OF_ASC_NODE = 120.2330
ARG_OF_PERICENTER = 11.4843
MEAN_ANOMALY   = 348.6762

EPHEMERIS_TYPE = 0
CLASSIFICATION_TYPE = U
NORAD_CAT_ID   = 19120
ELEMENT_SET_NO = 999
REV_AT_EPOCH   = 95491
BSTAR          = .92871697E-4
MEAN_MOTION_DOT = .148E-5
MEAN_MOTION_DDOT = 0

CCSDS_OMM_VERS = 2.0
CREATION_DATE  = 
ORIGINATOR     = 

OBJECT_NAME    = COSMOS 1953
OBJECT_ID      = 1988-050A
CENTER_NAME    = EARTH
REF_FRAME      = TEME
TIME_SYSTEM    = UTC
MEAN_ELEMENT_THEORY = SGP/SGP4

EPOCH          = 2026-02-12T21:01:13.743264
MEAN_MOTION    = 15.28028623
ECCENTRICITY   = .0010874
INCLINATION    = 82.5088
RA_OF_ASC_NODE = 183.1871
ARG_OF_PERICENTER = 206.7993
MEAN_ANOMALY   = 153.2686

EPHEMERIS_TYPE = 0
CLASSIFICATION_TYPE = U
NORAD_CAT_ID   = 19210
ELEMENT_SET_NO = 999
REV_AT_EPOCH   = 3399
BSTAR          = .36632E-3
MEAN_MOTION_DOT = .10063E-3
MEAN_MOTION_DDOT = 0

CCSDS_OMM_VERS = 2.0
CREATION_DATE  = 
ORIGINATOR     = 

OBJECT_NAME    = SL-8 R/B
OBJECT_ID      = 1988-053B
CENTER_NAME    = EARTH
REF_FRAME      = TEME
TIME_SYSTEM    = UTC
MEAN_ELEMENT_THEORY = SGP/SGP4

EPOCH          = 2026-02-13T05:53:04.960320
MEAN_MOTION    = 14.38900971
ECCENTRICITY   = .00206225
INCLINATION    = 74.0485
RA_OF_ASC_NODE = 157.5197
ARG_OF_PERICENTER = 341.2107
MEAN_ANOMALY   = 38.7196

EPHEMERIS_TYPE = 0
CLASSIFICATION_TYPE = U
NORAD_CAT_ID   = 19257
ELEMENT_SET_NO = 999
REV_AT_EPOCH   = 97308
BSTAR          = .90365975E-4
MEAN_MOTION_DOT = .253E-5
MEAN_MOTION_DDOT = 0

CCSDS_OMM_VERS = 2.0
CREATION_DATE  = 
ORIGINATOR     = 

OBJECT_NAME    = COSMOS 1975
OBJECT_ID      = 1988-093A
CENTER_NAME    = EARTH
REF_FRAME      = TEME
TIME_SYSTEM    = UTC
MEAN_ELEMENT_THEORY = SGP/SGP4

EPOCH          = 2026-02-13T05:31:36.884064
MEAN_MOTION    = 15.27644224
ECCENTRICITY   = .00103006
INCLINATION    = 82.5221
RA_OF_ASC_NODE = 142.2238
ARG_OF_PERICENTER = 254.0304
MEAN_ANOMALY   = 105.9800

EPHEMERIS_TYPE = 0
CLASSIFICATION_TYPE = U
NORAD_CAT_ID   = 19573
ELEMENT_SET_NO = 999
REV_AT_EPOCH   = 1567
BSTAR          = .34129025E-3
MEAN_MOTION_DOT = .9267E-4
MEAN_MOTION_DDOT = 0

CCSDS_OMM_VERS = 2.0
CREATION_DATE  = 
ORIGINATOR     = 

OBJECT_NAME    = SL-14 R/B
OBJECT_ID      = 1988-093B
CENTER_NAME    = EARTH
REF_FRAME      = TEME
TIME_SYSTEM    = UTC
MEAN_ELEMENT_THEORY = SGP/SGP4

EPOCH          = 2026-02-13T03:32:54.569184
MEAN_MOTION    = 14.85627813
ECCENTRICITY   = .00221569
INCLINATION    = 82.5278
RA_OF_ASC_NODE = 65.0884
ARG_OF_PERICENTER = 117.4784
MEAN_ANOMALY   = 314.2767

EPHEMERIS_TYPE = 0
CLASSIFICATION_TYPE = U
NORAD_CAT_ID   = 19574
ELEMENT_SET_NO = 999
REV_AT_EPOCH   = 99739
BSTAR          = .52533521E-4
MEAN_MOTION_DOT = .481E-5
MEAN_MOTION_DDOT = 0

CCSDS_OMM_VERS = 2.0
CREATION_DATE  = 
ORIGINATOR     = 

OBJECT_NAME    = SL-16 R/B
OBJECT_ID      = 1988-102B
CENTER_NAME    = EARTH
REF_FRAME      = TEME
TIME_SYSTEM    = UTC
MEAN_ELEMENT_THEORY = SGP/SGP4

EPOCH          = 2026-02-12T23:17:55.180320
MEAN_MOTION    = 14.16149775
ECCENTRICITY   = .00126467
INCLINATION    = 70.9983
RA_OF_ASC_NODE = 203.5036
ARG_OF_PERICENTER = 41.8726
MEAN_ANOMALY   = 318.3362

EPHEMERIS_TYPE = 0
CLASSIFICATION_TYPE = U
NORAD_CAT_ID   = 19650
ELEMENT_SET_NO = 999
REV_AT_EPOCH   = 92339
BSTAR          = .16875219E-3
MEAN_MOTION_DOT = .286E-5
MEAN_MOTION_DDOT = 0

CCSDS_OMM_VERS = 2.0
CREATION_DATE  = 
ORIGINATOR     = 

OBJECT_NAME    = INTERCOSMOS 24
OBJECT_ID      = 1989-080A
CENTER_NAME    = EARTH
REF_FRAME      = TEME
TIME_SYSTEM    = UTC
MEAN_ELEMENT_THEORY = SGP/SGP4

EPOCH          = 2026-02-13T06:13:28.290144
MEAN_MOTION    = 12.59523186
ECCENTRICITY   = .11877266
INCLINATION    = 82.6060
RA_OF_ASC_NODE = 120.3071
ARG_OF_PERICENTER = 349.5616
MEAN_ANOMALY   = 8.2645

EPHEMERIS_TYPE = 0
CLASSIFICATION_TYPE = U
NORAD_CAT_ID   = 20261
ELEMENT_SET_NO = 999
REV_AT_EPOCH   = 66372
BSTAR          = .15456911E-3
MEAN_MOTION_DOT = .533E-5
MEAN_MOTION_DDOT = 0

CCSDS_OMM_VERS = 2.0
CREATION_DATE  = 
ORIGINATOR     = 

OBJECT_NAME    = SL-14 R/B
OBJECT_ID      = 1989-080C
CENTER_NAME    = EARTH
REF_FRAME      = TEME
TIME_SYSTEM    = UTC
MEAN_ELEMENT_THEORY = SGP/SGP4

EPOCH          = 2026-02-12T21:50:35.252736
MEAN_MOTION    = 12.50462187
ECCENTRICITY   = .1229536
INCLINATION    = 82.5950
RA_OF_ASC_NODE = 189.0921
ARG_OF_PERICENTER = 241.4070
MEAN_ANOMALY   = 105.7988

EPHEMERIS_TYPE = 0
CLASSIFICATION_TYPE = U
NORAD_CAT_ID   = 20262
ELEMENT_SET_NO = 999
REV_AT_EPOCH   = 65705
BSTAR          = .14425E-3
MEAN_MOTION_DOT = .478E-5
MEAN_MOTION_DDOT = 0

CCSDS_OMM_VERS = 2.0
CREATION_DATE  = 
ORIGINATOR     = 

OBJECT_NAME    = DELTA 1 R/B
OBJECT_ID      = 1989-089B
CENTER_NAME    = EARTH
REF_FRAME      = TEME
TIME_SYSTEM    = UTC
MEAN_ELEMENT_THEORY = SGP/SGP4

EPOCH          = 2026-02-13T03:13:04.826496
MEAN_MOTION    = 14.50642460
ECCENTRICITY   = .00685576
INCLINATION    = 97.0724
RA_OF_ASC_NODE = 255.4753
ARG_OF_PERICENTER = 199.1628
MEAN_ANOMALY   = 160.6990

EPHEMERIS_TYPE = 0
CLASSIFICATION_TYPE = U
NORAD_CAT_ID   = 20323
ELEMENT_SET_NO = 999
REV_AT_EPOCH   = 89217
BSTAR          = .10033358E-3
MEAN_MOTION_DOT = .37E-5
MEAN_MOTION_DDOT = 0

CCSDS_OMM_VERS = 2.0
CREATION_DATE  = 
ORIGINATOR     = 

OBJECT_NAME    = ARIANE 40 R/B
OBJECT_ID      = 1990-005H
CENTER_NAME    = EARTH
REF_FRAME      = TEME
TIME_SYSTEM    = UTC
MEAN_ELEMENT_THEORY = SGP/SGP4

EPOCH          = 2026-02-13T03:27:25.916544
MEAN_MOTION    = 14.39853832
ECCENTRICITY   = .00088891
INCLINATION    = 98.3139
RA_OF_ASC_NODE = 105.5303
ARG_OF_PERICENTER = 279.1554
MEAN_ANOMALY   = 80.8629

EPHEMERIS_TYPE = 0
CLASSIFICATION_TYPE = U
NORAD_CAT_ID   = 20443
ELEMENT_SET_NO = 999
REV_AT_EPOCH   = 88927
BSTAR          = .10147132E-3
MEAN_MOTION_DOT = .276E-5
MEAN_MOTION_DDOT = 0

